ONEWEB-0282             
1 49000U 21060AK  24042.91469256  .00000086  00000+0  19014-3 0  9997
2 49000  87.9052  39.1937 0002029  77.6324 282.5034 13.16595394126931
ONEWEB-0283             
1 49001U 21060AL  24042.90361363  .00000080  00000+0  17628-3 0  9990
2 49001  87.9051  39.2038 0002159  85.1176 275.0201 13.16596337126949
ONEWEB-0284             
1 49002U 21060AM  24042.51728873  .00000121  00000+0  28204-3 0  9999
2 49002  87.9045  39.2719 0001885  77.5819 282.5522 13.16593229126871
ONEWEB-0285             
1 49075U 21075A   24042.84161575  .00000110  00000+0  27024-3 0  9998
2 49075  87.9042 161.0628 0001609 110.2266 249.9035 13.12444320122882
ONEWEB-0286             
1 49076U 21075B   24042.88910992 -.00000375  00000+0 -10767-2 0  9998
2 49076  87.9037 161.0597 0001518 122.9484 237.1790 13.12442563122247
ONEWEB-0287             
1 49077U 21075C   24042.91093424  .00000064  00000+0  13201-3 0  9995
2 49077  87.9246 176.1602 0001109 103.5201 256.6054 13.17650222120865
ONEWEB-0288             
1 49078U 21075D   24042.87323807 -.00000005  00000+0 -49288-4 0  9994
2 49078  87.9037 161.0669 0001369 104.0142 256.1139 13.12441766122865
